OBJECT_NAME,OBJECT_ID,EPOCH,MEAN_MOTION,ECCENTRICITY,INCLINATION,RA_OF_ASC_NODE,ARG_OF_PERICENTER,MEAN_ANOMALY,EPHEMERIS_TYPE,CLASSIFICATION_TYPE,NORAD_CAT_ID,ELEMENT_SET_NO,REV_AT_EPOCH,BSTAR,MEAN_MOTION_DOT,MEAN_MOTION_DDOT
BEIDOU-3 IGSO-1 (C38),2019-023A,2026-03-01T07:52:47.339616,1.00271445,.0026,58.5492,38.7573,236.5602,121.2372,0,U,44204,999,612,0,-.199E-5,0
BEIDOU-2 G8 (C01),2019-027A,2026-03-01T11:49:51.806208,1.00268458,.0009232,1.8600,74.7272,268.4054,138.1249,0,U,44231,999,2500,0,-.266E-5,0
COSMOS 2534 (758),2019-030A,2026-02-28T17:17:25.425024,2.13102114,.00096102,64.3688,196.2655,280.7620,166.1530,0,U,44299,999,5261,0,-.8E-7,0
BEIDOU-3 IGSO-2 (C39),2019-035A,2026-02-26T16:31:51.989952,1.00247364,.00387345,55.2338,159.8353,206.4752,153.7223,0,U,44337,999,2456,0,-.176E-5,0
GPS BIII-2  (PRN 18),2019-056A,2026-03-01T04:44:28.805568,2.00568051,.00580161,55.6862,335.4369,198.2399,333.4311,0,U,44506,999,4790,0,-.96E-6,0
BEIDOU-3 M24 (C46),2019-061A,2026-03-01T07:32:39.827040,1.86228845,.0008651,54.3998,186.3652,22.0339,337.9537,0,U,44542,999,4378,0,-.31E-6,0
BEIDOU-3 M23 (C45),2019-061B,2026-03-01T02:36:29.113056,1.86227192,.00051022,54.3976,186.3407,14.1129,120.2476,0,U,44543,999,4378,0,-.31E-6,0
EUTELSAT 5 WEST B (EGNOS/PRN 121),2019-067A,2026-03-01T08:59:48.413760,1.00271952,.0003184,0.1009,306.7245,39.6161,302.7357,0,U,44624,999,2335,0,-.61E-6,0
BEIDOU-3 IGSO-3 (C40),2019-073A,2026-02-28T00:19:05.143872,1.00270708,.00403779,54.9854,282.0779,189.1116,170.8905,0,U,44709,999,2336,0,-.145E-5,0
BEIDOU-3 M22 (C44),2019-078A,2026-02-28T01:54:59.619744,1.86231871,.00072213,54.0347,303.6688,34.9561,325.1493,0,U,44793,999,4261,0,-.39E-6,0
BEIDOU-3 M21 (C43),2019-078B,2026-02-28T05:15:49.599648,1.86227562,.00056611,54.0076,303.6269,36.1333,323.9632,0,U,44794,999,4262,0,-.4E-6,0
COSMOS 2544 (759),2019-088A,2026-03-01T02:22:52.232160,2.13101810,.00157478,65.5037,77.3374,259.2375,100.6416,0,U,44850,999,4841,0,.41E-6,0
BEIDOU-3 M19 (C41),2019-090A,2026-03-01T02:41:11.194368,1.86231174,.00203872,56.4646,66.3615,291.2005,143.7912,0,U,44864,999,4222,0,-.1E-7,0
BEIDOU-3 M20 (C42),2019-090B,2026-03-01T09:37:22.313280,1.86231096,.001782,56.4665,66.3862,302.6987,55.6736,0,U,44865,999,4220,0,-.2E-7,0
BEIDOU-3 G2 (C60),2020-017A,2026-03-01T04:16:00.625728,1.00271121,.0002681,2.6474,45.5064,298.6811,318.8170,0,U,45344,999,2217,0,-.157E-5,0
COSMOS 2545 (760),2020-018A,2026-02-24T03:11:23.054208,2.13102520,.00086616,64.4229,316.3952,251.9262,108.0301,0,U,45358,999,4625,0,-.47E-6,0
BEIDOU-3 G3 (C61),2020-040A,2026-02-28T14:43:08.523840,1.00264554,.0004911,2.1795,67.0969,316.5656,105.9394,0,U,45807,999,2098,0,-.37E-5,0
GPS BIII-3  (PRN 23),2020-041A,2026-03-01T06:42:43.721280,2.00560506,.0061323,56.6039,33.1302,205.2440,327.9609,0,U,45854,999,4187,0,-.67E-6,0
GALAXY 30 (WAAS/PRN 135),2020-056C,2026-03-01T09:45:39.199680,1.00271297,.0002071,0.0191,126.8337,227.9721,185.7736,0,U,46114,999,2021,0,.19E-6,0
COSMOS 2547 (705K),2020-075A,2026-03-01T11:35:54.431232,2.13100066,.0006642,64.6000,196.0666,229.2536,130.6482,0,U,46805,999,4161,0,-.13E-6,0
GPS BIII-4  (PRN 14),2020-078A,2026-02-28T19:35:04.984224,2.00565486,.00680489,54.0030,215.1712,204.2108,327.3641,0,U,46826,999,3933,0,.3E-7,0
GPS BIII-5  (PRN 11),2021-054A,2026-02-28T20:01:28.410240,2.00575560,.00239334,55.2227,336.8175,232.1967,136.7560,0,U,48859,999,3458,0,-.98E-6,0
QZS-1R (QZSS/PRN 196),2021-096A,2026-02-28T09:43:50.132640,1.00292063,.07468928,37.2352,81.1903,269.6206,87.2096,0,U,49336,999,1592,0,-.26E-5,0
GSAT0223 (GALILEO 27),2021-116A,2026-02-17T00:57:26.434656,1.70475508,.00028659,57.2005,344.9238,278.1950,264.6358,0,U,49809,999,2613,0,-.78E-6,0
GSAT0224 (GALILEO 28),2021-116B,2026-02-23T21:29:03.517440,1.70475193,.00021827,57.1984,344.7369,291.9502,250.7131,0,U,49810,999,2627,0,-.88E-6,0
COSMOS 2557 (706K),2022-075A,2026-03-01T04:17:55.250880,2.13101670,.0011822,64.3612,318.2927,283.1445,76.7771,0,U,52984,999,2841,0,-.49E-6,0
COSMOS 2559 (707K),2022-130A,2026-02-28T23:57:48.913920,2.13101169,.00106014,64.3338,318.3857,182.1671,177.8809,0,U,54031,999,2638,0,-.49E-6,0
COSMOS 2564 (761),2022-161A,2026-03-01T07:28:13.967328,2.13101880,.0009345,64.7417,196.2893,209.1479,150.7597,0,U,54377,999,2533,0,-.12E-6,0
GPS BIII-6  (PRN 28),2023-009A,2026-02-28T18:21:27.213984,2.00549258,.00047588,55.1093,152.7809,333.1698,25.1517,0,U,55268,999,2306,0,-.28E-6,0
BEIDOU-3 G4 (C62),2023-066A,2026-03-01T11:39:38.653056,1.00271975,.0001829,0.6544,310.4982,163.9264,19.7943,0,U,56564,999,1031,0,-.13E-5,0
NVS-01 (IRNSS-1J),2023-076A,2026-03-01T11:04:38.776224,1.00275073,.0007624,2.4258,248.7393,43.8433,162.3108,0,U,56759,999,1003,0,-.358E-5,0
